OBJECT_NAME,OBJECT_ID,EPOCH,MEAN_MOTION,ECCENTRICITY,INCLINATION,RA_OF_ASC_NODE,ARG_OF_PERICENTER,MEAN_ANOMALY,EPHEMERIS_TYPE,CLASSIFICATION_TYPE,NORAD_CAT_ID,ELEMENT_SET_NO,REV_AT_EPOCH,BSTAR,MEAN_MOTION_DOT,MEAN_MOTION_DDOT
INTELSAT 902 (IS-902),2001-039A,2026-06-04T04:46:01.422912,1.00271704,.00042697,6.0857,71.9392,358.5031,203.6038,0,U,26900,999,9056,0,-.273E-5,0
INTELSAT 904 (IS-904),2002-007A,2026-06-04T01:26:07.738656,1.00271044,.0007283,6.8873,69.3413,358.6598,174.5572,0,U,27380,999,5163,0,-.216E-5,0
DIRECTV 5 (TEMPO 1),2002-023A,2026-06-03T15:02:24.511776,1.00271884,.00035638,4.8432,75.4778,3.0335,289.0745,0,U,27426,999,8798,0,-.47E-6,0
INTELSAT 905 (IS-905),2002-027A,2026-06-04T06:04:05.908224,1.00272206,.0004242,6.7210,69.9550,11.1085,125.4484,0,U,27438,999,5123,0,.104E-5,0
GALAXY 3C (G-3C),2002-030A,2026-06-04T08:10:28.418016,1.00271893,.00019805,3.6974,78.1472,28.6864,173.7216,0,U,27445,999,4636,0,-.141E-5,0
INTELSAT 906 (IS-906),2002-041A,2026-06-03T22:57:38.778912,1.00271308,.00047456,5.7702,73.0820,356.2915,231.5963,0,U,27513,999,8689,0,.23E-6,0
GALAXY 13 (HORIZONS-1),2003-044A,2026-06-04T07:48:02.593728,1.00271435,.00020584,1.3870,84.0130,341.9394,153.8108,0,U,27954,999,4644,0,.144E-5,0
INTELSAT 10-02,2004-022A,2026-06-04T01:34:36.058368,1.00270913,.00002769,0.0110,351.1008,123.8111,160.2515,0,U,28358,999,8042,0,.1E-7,0
DIRECTV 8,2005-019A,2026-06-04T05:49:38.673408,1.00271287,.00031588,0.0022,4.3650,74.6741,142.0217,0,U,28659,999,7694,0,.13E-6,0
GALAXY 28 (G-28),2005-022A,2026-06-04T03:09:59.139936,1.00269229,.00032335,3.2649,79.0912,0.1428,193.7437,0,U,28702,999,5184,0,-.189E-5,0
GALAXY 16 (G-16),2006-023A,2026-06-04T08:13:37.862976,1.00273848,.00031766,0.0279,203.2944,240.3993,193.5117,0,U,29236,999,7284,0,-.115E-5,0
DIRECTV 9S,2006-043A,2026-06-04T08:04:54.050880,1.00272011,.00052095,2.3874,81.0551,3.3871,188.3822,0,U,29494,999,5125,0,-.102E-5,0
GALAXY 17 (G-17),2007-016B,2026-06-04T04:36:08.099424,1.00270763,.00050045,2.9394,80.0630,12.4837,144.1277,0,U,31307,999,6967,0,-.195E-5,0
INTELSAT 11 (IS-11),2007-044B,2026-06-04T07:24:03.430656,0.99053530,.00016358,3.5318,78.8247,74.0597,33.2654,0,U,32253,999,6832,0,-.131E-5,0
HORIZONS-2,2007-063B,2026-06-04T04:14:26.556000,1.00273999,.0004229,2.5685,80.7829,351.2890,170.3820,0,U,32388,999,6768,0,-.242E-5,0
DIRECTV 11,2008-013A,2026-06-03T23:24:10.038816,1.00271261,.00005152,0.0170,148.4619,243.0214,112.8090,0,U,32729,999,4546,0,-.114E-5,0
GALAXY 18 (G-18),2008-024A,2026-06-04T05:49:38.673408,1.00271641,.00033069,0.0149,16.1375,66.3028,134.6556,0,U,32951,999,4572,0,.37E-6,0
INTELSAT 25 (IS-25),2008-034A,2026-06-04T06:41:47.494752,0.99005891,.00023187,2.6750,80.4561,14.5221,77.5328,0,U,33153,999,6556,0,-.153E-5,0
GALAXY 19 (G-19),2008-045A,2026-06-04T06:19:27.314976,1.00270630,.00034938,0.0158,33.4824,57.8876,159.2102,0,U,33376,999,6477,0,-.127E-5,0
FM-5,2009-034A,2026-06-03T14:54:29.297952,1.00269774,.00003296,0.0118,299.7148,342.6474,107.1701,0,U,35493,999,4650,0,-.188E-5,0
INTELSAT 14 (IS-14),2009-064A,2026-06-04T04:47:31.278912,1.00271469,.00029691,0.0112,304.2011,144.2315,191.1044,0,U,36097,999,6047,0,-.261E-5,0
INTELSAT 15 (IS-15),2009-067A,2026-06-04T01:59:21.696864,1.00273568,.0002511,0.0121,312.6187,122.6811,292.2235,0,U,36106,999,4109,0,-.174E-5,0
DIRECTV 12,2009-075A,2026-06-04T02:48:24.492960,1.00273346,.00003131,0.0425,145.4768,256.6829,149.7952,0,U,36131,999,4642,0,-.92E-6,0
INTELSAT 16 (IS-16),2010-006A,2026-06-04T02:56:02.254848,1.00270686,.00024037,0.0123,20.6118,62.8393,136.9469,0,U,36397,999,5952,0,-.233E-5,0
XM-5,2010-053A,2026-06-04T05:41:38.729184,1.00272881,.00029942,0.0619,274.2858,276.9139,31.7068,0,U,37185,999,5735,0,-.11E-6,0
INTELSAT 17 (IS-17),2010-065B,2026-06-04T03:36:34.090848,1.00271730,.00023879,0.0091,282.9347,153.6832,296.1153,0,U,37238,999,5311,0,.1E-6,0
INTELSAT 28 (IS-28),2011-016A,2026-06-04T04:51:23.408064,1.00270338,.00040921,1.7724,82.7814,350.5125,220.5329,0,U,37392,999,5315,0,-.213E-5,0
INTELSAT 18 (IS-18),2011-056A,2026-06-04T06:48:02.888928,1.00271542,.00022581,0.0136,292.1510,152.6749,89.9204,0,U,37834,999,5368,0,.65E-6,0
INTELSAT 22 (IS-22),2012-011A,2026-06-04T05:13:38.629344,1.00271931,.00020398,0.0097,33.5367,39.6766,329.9543,0,U,38098,999,705,0,-.47E-6,0
INTELSAT 19 (IS-19),2012-030A,2026-06-04T07:45:38.832768,1.00272177,.00032257,0.0188,336.0261,104.6625,94.5018,0,U,38356,999,5032,0,-.44E-6,0
INTELSAT 20 (IS-20),2012-043A,2026-06-04T05:13:38.629344,1.00273082,.00016611,0.0048,89.4312,84.3196,225.8244,0,U,38740,999,5061,0,-.13E-6,0
